Gauge	PSMSL_ID	Short_Name	Lat	Lon	Long_Name	Region	Basin	Record_Start	Record_End	N_Obs	QA_YR1	QA_YR2	QA_Yrs	QA_frac	QA_Pass	Adj
285A	157	Buen	-34.67	-58.5	Buenos Aires	Argentina	Atlantic	1905	1961	20819	1905	1961	57	1	TRUE	0.366950524
331A	822	Bris	-27.37	153.17	Brisbane	Australia	Pacific	1984	2016	12054	1984	2016	33	0.98	TRUE	0.169577635
166A	1159	Broo	-18	122.22	Broome	Australia	Indian	1986	2016	11323	1986	2016	31	0.87	TRUE	-0.04028194
332A	1154	Bund	-24.77	152.37	Bundaberg	Australia	Pacific	1984	2016	12054	1984	2016	33	0.99	TRUE	0.071270637
171A	983	Coco	-12.12	96.88	Cocos	Australia	Indian	1985	2016	11688	1985	2016	32	0.93	TRUE	0.026447523
168A	935	Darw	-12.47	130.83	Darwin	Australia	Indian	1984	2016	12054	1984	2016	33	0.98	TRUE	0.082499985
176A	1114	Espe	-33.87	121.88	Esperance	Australia	Indian	1985	2016	11688	1985	2016	32	0.98	TRUE	0.035930549
333A	65	Fort	-33.85	151.22	Fort Denison	Australia	Pacific	1965	2015	18627	1965	2015	51	0.94	TRUE	0.017972248
175A	111	Frem	-32.05	115.73	Fremantle	Australia	Indian	1984	2015	11688	1984	2015	32	0.98	TRUE	0.041654858
335A	1216	Spri	-42.53	147.92	Spring Bay	Australia	Pacific	1985	2016	11688	1985	2016	32	0.96	TRUE	-0.010870308
334A	637	Town	-19.25	146.83	Townsville	Australia	Pacific	1984	2016	12054	1984	2016	33	0.99	TRUE	0.130450366
281A	726	Cana	-25.02	-47.92	Cananeia-A	Brazil	Atlantic	1954	2006	19358	1954	2006	53	0.98	TRUE	0.066193732
280A	1032	Ilha	-22.88	-43.15	"Ilha Fiscal,RJ"	Brazil	Atlantic	1963	2013	18628	1963	2013	51	0.95	TRUE	0.064648699
GESLA_1258	554	Aler	50.587	-126.931	"Alert Bay, BC"	Canada	Pacific	1945	1979	11086	1945	1979	35	0.91	TRUE	-0.039256655
GESLA_0640	1242	Bamf	48.836	-125.136	"Bamfield, BC"	Canada	Pacific	1969	2015	16211	1969	2015	47	0.98	TRUE	-0.032035204
GESLA_1079	984	Bell	52.163	-128.143	"Bella Bella, BC"	Canada	Pacific	1906	2015	19217	1951	2015	65	0.81	TRUE	0.034702645
GESLA_0986	1323	Camp	50.042	-125.247	"Campbell River, BC"	Canada	Pacific	1958	2015	16050	1961	2015	55	0.81	TRUE	-0.391085563
GESLA_0440	688	Fulf	48.769	-123.451	"Fulford Harbour, BC"	Canada	Pacific	1952	1992	14343	1952	1992	41	0.97	TRUE	0.065168094
GESLA_0997	1245	New-	49.2	-122.91	"New Westminster, BC"	Canada	Pacific	1959	2015	15763	1962	2015	54	0.81	TRUE	-0.169058389
GESLA_0896	1152	Patr	48.654	-123.451	"Patricia Bay, BC"	Canada	Pacific	1966	2015	14096	1968	2015	48	0.81	TRUE	0.09687722
GESLA_1241	193	Poin	49.337	-123.253	"Point Atkinson, BC"	Canada	Pacific	1914	2015	27053	1933	2015	83	0.8	TRUE	-0.093956261
GESLA_0502	1071	Port	50.722	-127.489	"Port Hardy, BC"	Canada	Pacific	1945	2015	18184	1953	2015	63	0.8	TRUE	0.028377907
540A	167	Prin	54.32	-130.32	"Prince Rupert, BC"	Canada	Pacific	1909	2018	40177	1923	2018	96	0.8	TRUE	-0.022728799
GESLA_1073	829	Quee	53.252	-132.072	"Queen Charlotte City, BC"	Canada	Pacific	1957	2015	18475	1957	2015	59	0.88	TRUE	-0.079257575
GESLA_0652	1255	Stev	49.125	-123.181	"Steveston, BC"	Canada	Pacific	1969	2001	10306	1969	2001	33	0.87	TRUE	-0.139981137
542A	165	Tofi	49.15	-125.9	"Tofino, BC"	Canada	Pacific	1909	2018	40177	1929	2018	90	0.8	TRUE	0.046027346
GESLA_0453	175	Vanc	49.287	-123.11	"Vancouver, BC"	Canada	Pacific	1909	2015	31654	1909	2015	107	0.82	TRUE	-0.037063864
543A	166	Vict	48.42	-123.37	"Victoria, BC"	Canada	Pacific	1909	2018	40177	1909	2018	110	0.99	TRUE	0.017267059
274A	447	Chur	58.77	-94.18	"Churchill, MB"	Canada	Atlantic	1961	2018	21184	1961	2018	58	0.91	TRUE	-0.145700196
GESLA_1246	1349	Lowe	47.083	-64.883	"Lower Escuminac, NB"	Canada	Atlantic	1963	2015	14161	1967	2015	49	0.8	TRUE	0.065070317
GESLA_0713	195	Sain	45.251	-66.063	"Saint John, NB"	Canada	Atlantic	1900	2015	32954	1903	2015	113	0.8	TRUE	0.001947664
GESLA_0339	1321	Arge	47.3	-53.983	"Argentia, NF"	Canada	Atlantic	1971	2015	14660	1971	2015	45	0.91	TRUE	0.022241574
GESLA_0655	392	Port	47.567	-59.133	"Port-aux-Basques, NF"	Canada	Atlantic	1935	2015	19077	1953	2015	63	0.8	TRUE	0.023628724
276A	393	St. 	47.57	-52.7	"St. John's-A, NF"	Canada	Atlantic	1935	2018	31046	1957	2018	62	0.8	TRUE	0.014814502
275A	96	Hali	44.67	-63.58	"Halifax, NS"	Canada	Atlantic	1895	2014	43829	1899	2014	116	0.8	TRUE	0.040534159
GESLA_1171	1299	Nort	46.217	-60.25	"North Sydney, NS"	Canada	Atlantic	1970	2015	15976	1970	2015	46	0.97	TRUE	0.076957557
GESLA_1238	1158	Yarm	43.833	-66.117	"Yarmouth, NS"	Canada	Atlantic	1900	2015	16956	1960	2015	56	0.81	TRUE	-0.014622272
GESLA_0585	427	Char	46.233	-63.117	"Charlottetown, PEI"	Canada	Atlantic	1911	2015	30908	1911	2015	105	0.81	TRUE	0.376592643
GESLA_1262	1121	Wood	45.683	-62.7	"Wood Islands, PEI"	Canada	Atlantic	1900	1996	10684	1963	1996	34	0.82	TRUE	0.161794509
080A	510	Anto	-23.65	-70.4	Antofagasta	Chile	Pacific	1945	2018	27028	1945	2018	74	0.92	TRUE	0.018096386
022C	1272	East	-27.15	-109.47	Easter-C	Chile	Pacific	1970	2018	17897	1970	2018	49	0.84	TRUE	0.023300632
021B	1644	Juan	-33.63	-78.82	Juan Fernandez-B	Chile	Pacific	1985	2018	12418	1985	2018	34	0.86	TRUE	-0.002887526
684A	472	Puer	-41.48	-72.95	Puerto Montt	Chile	Pacific	1980	2018	14245	1980	2018	39	0.94	TRUE	0.505930549
GESLA_0521	2263	Puer	-54.933	-67.617	Puerto Williams	Chile	Pacific	1964	1998	12213	1964	1998	35	0.95	TRUE	0.03214663
035A	1751	San 	-26.28	-80.1	San Felix	Chile	Pacific	1987	2018	11688	1987	2018	32	0.83	TRUE	0.005341754
081A	499	Valp	-33.02	-71.62	Valparaiso	Chile	Pacific	1944	2018	27394	1944	2018	75	0.86	TRUE	0.021126843
329B	333	Hong	22.3	114.22	Hong Kong-B	China	Pacific	1986	2018	12053	1986	2018	33	0.99	TRUE	0.046976289
376A	727	Xiam	24.45	118.07	Xiamen	China	Pacific	1954	1997	16071	1954	1997	44	1	TRUE	0.087856971
085A	456	Buen	3.88	-77.05	Buenaventura	Colombia	Pacific	1953	2014	22645	1953	2014	62	0.89	TRUE	0.319276012
265A	572	Cart	10.38	-75.53	Cartagena	Colombia	Atlantic	1951	1993	15706	1951	1993	43	0.86	TRUE	-0.097715143
303A	639	Tuma	1.82	-78.72	Tumaco	Colombia	Pacific	1951	2018	24837	1951	2018	68	0.83	TRUE	0.06888807
024A	1450	Penr	-8.97	-158.05	Penrhyn	Cook Islands	Pacific	1977	2017	14975	1977	2017	41	0.94	TRUE	-0.019656455
087A	844	Quep	9.4	-84.17	Quepos-A	Costa Rica	Pacific	1961	1994	12418	1961	1994	34	0.83	TRUE	-0.009203904
GESLA_0098	80	Esbj	55.467	8.433	Esbjerg	Denmark	Atlantic	1950	2015	22988	1950	2015	66	0.96	TRUE	0.076563851
837A	120	Geds	54.57	11.93	Gedser	Denmark	Atlantic	1891	2012	44560	1891	2012	122	0.95	TRUE	0.141719941
838A	119	Horn	56.1	12.47	Hornbaek	Denmark	Atlantic	1891	2012	44560	1891	2012	122	0.96	TRUE	0.08045126
003B	1645	Balt	-0.43	-90.28	Baltra-B	Ecuador	Pacific	1985	2018	12418	1985	2018	34	0.88	TRUE	-0.013416341
091A	544	La L	-2.2	-80.92	La Libertad	Ecuador	Pacific	1949	2017	25202	1949	2017	69	0.94	TRUE	0.051446317
030A	300	Sant	-0.75	-90.3	Santa Cruz	Ecuador	Pacific	1978	2018	14975	1978	2018	41	0.95	TRUE	0.013090126
082A	1302	Acaj	13.58	-89.83	Acajutla-A	El Salvador	Pacific	1962	2001	14610	1962	2001	40	0.94	TRUE	-0.002713997
054A	528	Chuu	7.45	151.85	Chuuk	Fd. St. Micronesia	Pacific	1947	1991	16436	1956	1991	36	0.82	TRUE	0.004316961
029A	1473	Kapi	1.08	154.77	Kapingamarangi	Fd. St. Micronesia	Pacific	1978	2018	14975	1978	2018	41	0.81	TRUE	0.012421328
001B	1370	Pohn	6.98	158.23	Pohnpei-B	Fd. St. Micronesia	Pacific	1974	2004	11323	1974	2004	31	0.97	TRUE	0.004894726
008B	1251	Yap-	9.5	138.12	Yap-B	Fd. St. Micronesia	Pacific	1969	2018	18262	1969	2018	50	0.9	TRUE	-0.00968115
GESLA_0376	249	Dege	60.032	20.385	Degerby	Finland	Atlantic	1970	2014	16069	1970	2014	45	0.98	TRUE	0.044611652
GESLA_1009	315	Hami	60.563	27.179	Hamina	Finland	Atlantic	1970	2014	16071	1970	2014	45	0.98	TRUE	0.097039838
GESLA_0371	28	Hank	59.823	22.977	Hanko	Finland	Atlantic	1970	2014	16071	1970	2014	45	0.98	TRUE	0.053197475
GESLA_0246	14	Hels	60.154	24.956	Helsinki	Finland	Atlantic	1970	2014	16071	1970	2014	45	0.98	TRUE	0.069895236
GESLA_0803	285	Kask	62.344	21.215	Kaskinen	Finland	Atlantic	1970	2014	15999	1970	2014	45	0.97	TRUE	0.053615943
GESLA_0026	229	Kemi	65.673	24.515	Kemi	Finland	Atlantic	1970	2014	15632	1970	2014	45	0.95	TRUE	0.089459346
GESLA_1110	85	Mant	61.594	21.463	Mantyluoto	Finland	Atlantic	1970	2014	15689	1970	2014	45	0.95	TRUE	0.049786271
GESLA_1182	79	Oulu	65.04	25.418	Oulu	Finland	Atlantic	1970	2014	16041	1970	2014	45	0.98	TRUE	0.093190386
GESLA_1265	194	Piet	63.709	22.69	Pietarsaari	Finland	Atlantic	1970	2014	16067	1970	2014	45	0.98	TRUE	0.069247335
GESLA_1140	240	Raah	64.666	24.407	Raahe	Finland	Atlantic	1970	2014	16041	1970	2014	45	0.98	TRUE	0.076814279
GESLA_0209	376	Raum	61.133	21.426	Rauma	Finland	Atlantic	1970	2014	16069	1970	2014	45	0.98	TRUE	0.051574663
GESLA_0998	239	Turk	60.428	22.101	Turku	Finland	Atlantic	1970	2014	16069	1970	2014	45	0.98	TRUE	0.069704732
GESLA_0063	57	Vaas	63.081	21.571	Vaasa	Finland	Atlantic	1970	2014	16071	1970	2014	45	0.98	TRUE	0.059898664
GESLA_0022	1801	Bayo	43.527	-1.515	Bayonne Boucau	France	Atlantic	1967	2014	14116	1967	2014	48	0.82	TRUE	-0.110914308
822A	1	Bres	48.38	-4.48	Brest	France	Atlantic	1846	2018	63187	1846	2018	173	0.92	TRUE	0.160657907
GESLA_0923	467	Cher	49.651	-1.635	Cherbourg	France	Atlantic	1943	2014	14735	1967	2014	48	0.8	TRUE	0.094509488
GESLA_0431	474	Diep	49.929	1.085	Dieppe	France	Atlantic	1954	2014	15591	1954	1992	39	0.82	TRUE	0.218059575
GESLA_0059	468	Dunk	51.048	2.367	Dunkerque	France	Atlantic	1956	2014	16736	1956	1991	36	0.81	TRUE	0.259250862
GESLA_1143	1294	Le-C	48.359	-4.781	Le Conquet	France	Atlantic	1970	2014	15364	1970	2014	45	0.96	TRUE	0.072969859
GESLA_0905	453	Le-H	49.482	0.106	Le Havre	France	Atlantic	1938	2014	16245	1963	2014	52	0.81	TRUE	-0.043523215
824A	61	Mars	43.27	5.35	Marseille	France	Atlantic	1849	2018	62091	1885	1988	104	0.8	TRUE	0.011725319
019A	2134	Noum	-22.23	166.42	Noumea	France	Pacific	1967	2018	18993	1967	2018	52	0.98	TRUE	0.04153897
GESLA_0907	1247	Port	47.644	-3.446	Port-Tudy	France	Atlantic	1966	2014	14333	1966	2014	49	0.82	TRUE	-0.003793617
GESLA_0866	1347	Rosc	48.718	-3.966	Roscoff	France	Atlantic	1973	2014	14266	1973	2014	42	0.94	TRUE	0.024629162
GESLA_1017	1078	Sain	47.14	-2.246	Saint-Gildas	France	Atlantic	1962	2014	15812	1962	2014	53	0.83	TRUE	-0.072170004
GESLA_0618	469	Sain	43.395	-1.682	Saint-Jean-de-Luz	France	Atlantic	1942	2014	14950	1964	2008	45	0.8	TRUE	-0.030427043
015B	1397	Pape	-17.52	-149.57	Papeete-B	French Polynesia	Pacific	1975	2018	16071	1975	2018	44	0.96	TRUE	0.010877785
016A	1253	Riki	-23.12	-134.95	Rikitea	French Polynesia	Pacific	1969	2018	18262	1969	2018	50	0.91	TRUE	-0.001115175
825A	7	Cuxh	53.87	8.72	Cuxhaven	Germany	Atlantic	1917	2018	37255	1917	2018	102	0.99	TRUE	-0.589140954
GESLA_1046	638	Reyk	64.151	-21.94	Reykjavik	Iceland	Atlantic	1970	2014	15443	1970	2014	45	0.96	TRUE	-0.013073927
834A	916	Mali	55.37	-7.33	Malin Head	Ireland	Atlantic	1958	2001	16071	1958	2001	44	0.94	TRUE	-0.059160834
GESLA_0109	154	Trie	45.65	13.75	Trieste	Italy	Atlantic	1971	2012	15341	1971	2012	42	1	TRUE	0.04959528
GESLA_0061	87	Vene	45.419	12.426	Venezia	Italy	Atlantic	1983	2014	11688	1983	2014	32	1	TRUE	0.031308128
347A	1104	Abas	44.02	144.28	Abashiri	Japan	Pacific	1968	2018	18628	1968	2018	51	0.98	TRUE	0.034663744
354A	814	Abur	31.58	131.42	Aburatsu	Japan	Pacific	1961	2018	21184	1961	2018	58	1	TRUE	0.009990977
047A	1391	Chic	27.1	142.18	Chichijima	Japan	Pacific	1975	2018	16071	1975	2018	44	0.99	TRUE	0.014993559
GESLA_0830	1264	Fuka	40.65	139.933	Fukaura	Japan	Pacific	1971	2013	15047	1971	2013	43	0.98	TRUE	0.010187812
GESLA_0091	1101	Fuku	32.7	128.85	Fukue	Japan	Pacific	1964	2013	17075	1964	2013	50	0.95	TRUE	-0.030625445
375A	460	Hach	40.53	141.53	Hachinohe	Japan	Pacific	1980	2011	11688	1980	2011	32	0.97	TRUE	-0.004788206
364A	813	Hako	41.78	140.72	Hakodate	Japan	Pacific	1964	2018	20089	1964	2018	55	0.94	TRUE	0.00514513
348A	94	Hama	34.9	132.07	Hamada	Japan	Pacific	1984	2018	12784	1984	2018	35	0.99	TRUE	0.039012414
358A	133	Hoso	32.42	131.68	Hosojima	Japan	Pacific	1933	1975	15705	1933	1975	43	0.86	TRUE	0.016522173
365A	1411	Ishi	24.33	124.15	Ishigaki	Japan	Pacific	1969	2018	18262	1969	2018	50	0.99	TRUE	-0.069025898
GESLA_0187	868	Kago	31.583	130.567	Kagoshima	Japan	Pacific	1964	2013	16827	1964	2013	50	0.94	TRUE	0.03833471
GESLA_0265	846	Kobe	34.683	135.183	Kobe	Japan	Pacific	1964	2013	17528	1964	2013	50	0.98	TRUE	-0.273765617
GESLA_0214	1184	Koch	33.5	133.567	Kochi	Japan	Pacific	1967	2013	14762	1967	2013	47	0.88	TRUE	0.014865773
GESLA_0334	809	Koma	34.017	134.583	Komatsushima	Japan	Pacific	1963	2013	17344	1963	2013	51	0.95	TRUE	-0.141509872
GESLA_0229	1386	Kuch	32.6	130.2	Kuchinotsu	Japan	Pacific	1967	2013	16305	1967	2013	47	0.97	TRUE	0.052393032
353A	134	Kush	33.48	135.77	Kushimoto	Japan	Pacific	1961	2018	21184	1961	2018	58	0.98	TRUE	-0.003364776
350A	518	Kush	42.97	144.37	Kushiro	Japan	Pacific	1963	2018	20454	1963	2018	56	0.98	TRUE	-0.000765441
356A	1089	Mais	34.68	137.62	Maisaka	Japan	Pacific	1968	2018	18628	1968	2018	51	0.97	TRUE	-0.140012322
GESLA_0721	663	Maiz	35.467	135.383	Maizuru	Japan	Pacific	1968	2013	16430	1968	2013	46	1	TRUE	0.019396662
GESLA_0977	1142	Maku	31.267	130.3	Makurazaki	Japan	Pacific	1964	2013	16969	1964	2013	50	0.95	TRUE	-0.016671303
GESLA_1229	880	Mats	33.867	132.717	Matsuyama	Japan	Pacific	1960	2013	18968	1960	2013	54	0.98	TRUE	-0.573626677
352A	359	Mera	34.92	139.82	Mera	Japan	Pacific	1965	2018	19723	1965	2018	54	0.95	TRUE	0.005612906
GESLA_0147	810	Misu	32.617	130.45	Misumi	Japan	Pacific	1960	2012	18576	1960	2012	53	0.98	TRUE	0.042932458
357A	1060	Miya	34.07	139.47	Miyakejima	Japan	Pacific	1964	2018	20089	1964	2018	55	0.98	TRUE	0.01309782
GESLA_1188	1149	Miya	39.65	141.983	Miyako	Japan	Pacific	1960	2013	18274	1960	2013	54	0.94	TRUE	-0.009619202
GESLA_0682	1390	Muro	33.267	134.167	Murotomisaki	Japan	Pacific	1966	2013	16033	1966	2013	48	0.93	TRUE	0.018460421
362A	1100	Naga	32.73	129.87	Nagasaki	Japan	Pacific	1985	2018	12418	1985	2018	34	1	TRUE	-0.029505875
GESLA_0567	860	Nago	35.083	136.883	Nagoya	Japan	Pacific	1960	2013	19352	1960	2013	54	1	TRUE	0.015624801
355A	1151	Naha	26.22	127.67	Naha	Japan	Pacific	1966	2018	19358	1966	2018	53	0.99	TRUE	0.012812032
345A	1105	Naka	29.83	129.83	Nakano Shima	Japan	Pacific	1984	2018	12784	1984	2018	35	0.99	TRUE	0.000513527
359A	887	Naze	28.4	129.48	Naze	Japan	Pacific	1957	2018	22645	1957	2018	62	0.94	TRUE	0.009307055
363A	1096	Nish	30.73	130.98	Nishinoomote	Japan	Pacific	1965	2018	19723	1965	2018	54	0.98	TRUE	-0.024748664
351A	1364	Ofun	39.02	141.75	Ofunato	Japan	Pacific	1965	2018	19723	1965	2018	54	0.98	TRUE	-0.015012892
GESLA_0653	1091	Okad	34.783	139.383	Okada	Japan	Pacific	1960	2013	18605	1960	2013	54	0.96	TRUE	-0.029059562
GESLA_0690	1263	Omae	34.617	138.217	Omaezaki	Japan	Pacific	1960	2013	18879	1960	2013	54	0.98	TRUE	0.010642627
GESLA_0541	1102	Oura	32.983	130.217	Oura	Japan	Pacific	1967	2013	16383	1967	2013	47	0.98	TRUE	0.083344056
GESLA_0962	1146	Owas	34.067	136.217	Owase	Japan	Pacific	1965	2013	17142	1965	2013	49	0.98	TRUE	0.006891969
GESLA_0473	1095	Saig	36.2	133.333	Saigo	Japan	Pacific	1960	2013	19336	1960	2013	54	1	TRUE	0.023254319
GESLA_1052	811	Saka	35.55	133.25	Sakai	Japan	Pacific	1960	2013	19045	1960	2013	54	0.98	TRUE	0.008077416
GESLA_0438	808	Shim	35.017	138.517	Shimizuminato	Japan	Pacific	1964	2013	17881	1964	2013	50	1	TRUE	-0.012664197
GESLA_1087	1150	Shir	33.683	135.383	Shirahama	Japan	Pacific	1967	2013	16599	1967	2013	47	0.99	TRUE	0.002701666
GESLA_0525	1098	Sumo	34.35	134.9	Sumoto	Japan	Pacific	1964	2013	17688	1964	2013	50	0.99	TRUE	-0.352117811
GESLA_0684	847	Taka	34.35	134.05	Takamatsu	Japan	Pacific	1964	2013	16601	1964	2013	50	0.93	TRUE	0.585300943
GESLA_0086	817	Tann	34.333	135.183	Tannowa	Japan	Pacific	1966	2013	16560	1966	2013	48	0.96	TRUE	-0.35391965
GESLA_0047	673	Toky	35.65	139.767	Tokyo	Japan	Pacific	1960	2013	18422	1960	2013	54	0.95	TRUE	-0.012738184
GESLA_0922	815	Tosa	32.783	132.967	Tosashimizu	Japan	Pacific	1960	2013	19323	1960	2013	54	1	TRUE	0.023231639
349A	1389	Toya	36.77	137.23	Toyama	Japan	Pacific	1967	2018	18993	1967	2018	52	0.98	TRUE	0.017326252
GESLA_1219	407	Uchi	35.017	138.883	Uchiura	Japan	Pacific	1960	2013	19202	1960	2013	54	0.99	TRUE	-0.010799567
GESLA_0956	812	Uno	34.483	133.95	Uno	Japan	Pacific	1964	2013	16993	1964	2013	50	0.95	TRUE	0.746111776
GESLA_0676	1090	Urag	33.567	135.9	Uragami	Japan	Pacific	1962	2013	16627	1962	2013	52	0.89	TRUE	0.01343871
GESLA_0851	461	Uwaj	33.233	132.55	Uwajima	Japan	Pacific	1963	2013	17374	1963	2013	51	0.95	TRUE	-0.437255645
GESLA_0790	816	Waka	34.217	135.15	Wakayama	Japan	Pacific	1966	2013	16769	1966	2013	48	0.98	TRUE	-0.149680856
360A	1103	Wakk	45.4	141.68	Wakkanai	Japan	Pacific	1967	2018	18993	1967	2018	52	0.99	TRUE	0.036404455
GESLA_0619	722	Yoko	35.467	139.633	Yokohama	Japan	Pacific	1960	2006	14431	1960	2006	47	0.86	TRUE	-0.011983702
320A	1592	Cend	5.25	103.18	Cendering	Malaysia	Pacific	1984	2015	11688	1984	2015	32	0.94	TRUE	0.053276995
326A	1703	Geti	6.22	102.1	Geting	Malaysia	Pacific	1986	2015	10957	1986	2015	30	0.96	TRUE	0.076014047
321A	248	Joho	1.45	103.78	Johor Baharu	Malaysia	Pacific	1983	2013	11323	1983	2013	31	0.92	TRUE	0.43106974
140A	1591	Kela	3.05	101.35	Kelang	Malaysia	Indian	1983	2015	12053	1983	2015	33	0.92	TRUE	0.185819377
141A	1593	Keli	2.2	102.15	Keling	Malaysia	Indian	1984	2015	11688	1984	2015	32	0.95	TRUE	0.147555085
322A	1589	Kuan	3.97	103.42	Kuantan	Malaysia	Pacific	1983	2015	12053	1983	2015	33	0.96	TRUE	0.0892507
325A	1677	Kuku	1.32	103.43	Kukup	Malaysia	Pacific	1985	2015	11322	1985	2015	31	0.95	TRUE	0.55528839
142A	1676	Lang	6.87	99.77	Langkawi	Malaysia	Indian	1985	2017	12053	1985	2017	33	0.92	TRUE	0.014445332
143A	1594	Lumu	4.23	100.6	Lumut	Malaysia	Indian	1984	2015	11688	1984	2015	32	0.94	TRUE	0.122612507
144A	1595	Pena	5.42	100.33	Penang	Malaysia	Indian	1984	2015	11688	1984	2015	32	0.94	TRUE	0.109930722
324A	1702	Sedi	1.92	104.1	Sedili	Malaysia	Pacific	1986	2015	10957	1986	2015	30	0.95	TRUE	0.005959191
323A	1678	Tiom	2.8	104.13	Tioman	Malaysia	Pacific	1985	2015	11322	1985	2015	31	0.94	TRUE	0.035516472
103C	477	Port	-20.15	57.48	Port Louis-C	Mauritius	Indian	1986	2017	11688	1986	2017	32	0.96	TRUE	-0.010326937
105A	1672	Rodr	-19.67	63.42	Rodrigues	Mauritius	Indian	1986	2017	11688	1986	2017	32	0.94	TRUE	0.013472399
316A	686	Acap	16.83	-99.9	"Acapulco-A,Gro."	Mexico	Pacific	1952	1995	16071	1952	1995	44	0.9	TRUE	0.016104252
034A	1355	Cabo	22.87	-109.9	Cabo San Lucas	Mexico	Pacific	1973	2003	11322	1973	2002	30	0.82	TRUE	0.023753671
317A	795	Ense	31.85	-116.63	Ensenada	Mexico	Pacific	1956	1991	13149	1956	1991	36	0.82	TRUE	0.019147816
397A	693	Guay	27.93	-110.9	Guaymas	Mexico	Pacific	1953	1986	12418	1953	1986	34	0.81	TRUE	0.022578076
395A	737	Manz	19.05	-104.32	Manzanillo-A	Mexico	Pacific	1953	1982	10957	1953	1982	30	0.94	TRUE	0.017754688
394A	689	Sali	16.15	-95.2	Salina Cruz	Mexico	Pacific	1952	1991	14610	1952	1983	32	0.8	TRUE	0.014676323
GESLA_0681	24	Delf	53.326	6.933	Delfzijl	Netherlands	Atlantic	1971	2014	16071	1971	2014	44	1	TRUE	-0.388015721
GESLA_0330	23	Den-	52.965	4.746	Den Helder	Netherlands	Atlantic	1971	2014	16071	1971	2014	44	1	TRUE	0.074368203
GESLA_0928	22	Hoek	51.977	4.12	Hoek van Holland	Netherlands	Atlantic	1971	2014	16071	1971	2014	44	1	TRUE	0.085866799
GESLA_0891	852	Noum	-22.292	166.437	Noumea	New Caledonia	Atlantic	1967	1998	11629	1967	1998	32	0.99	TRUE	0.033940713
398A	1065	Mars	-35.83	174.5	Marsden Point	New Zealand	Pacific	1975	2018	16071	1975	2018	44	0.82	TRUE	0.061704603
668A	1750	Napi	-39.48	176.92	Napier	New Zealand	Pacific	1989	2018	10957	1989	2018	30	0.85	TRUE	0.015578709
076A	996	Tara	-39.05	174.03	Taranaki	New Zealand	Pacific	1955	2018	23376	1955	2018	64	0.84	TRUE	0.009877404
073A	1590	Taur	-37.65	176.18	Tauranga	New Zealand	Pacific	1984	2018	12784	1984	2018	35	0.88	TRUE	-0.03477281
071A	221	Well	-41.28	174.78	Wellington	New Zealand	Pacific	1944	2018	27394	1944	2018	75	0.96	TRUE	0.089005787
GESLA_0470	313	Heim	63.425	9.101	Heimsjoe	Norway	Atlantic	1970	2015	16309	1970	2015	46	0.99	TRUE	0.051519464
GESLA_1015	1267	Honn	70.98	25.973	Honningsvaag	Norway	Atlantic	1970	2015	15477	1970	2015	46	0.94	TRUE	-0.044221325
GESLA_1207	486	Maal	61.934	5.113	Maaloey	Norway	Atlantic	1970	2015	15819	1970	2015	46	0.96	TRUE	0.080837321
823A	1421	Ny-A	78.93	11.95	Ny-Alesund	Norway	Atlantic	1976	2014	14245	1976	2014	39	0.9	TRUE	0.013726807
GESLA_0911	62	Oslo	59.909	10.734	Oslo	Norway	Atlantic	1970	2015	15699	1970	2015	46	0.95	TRUE	0.112448225
803A	1241	Rorv	64.87	11.25	Rorvik	Norway	Atlantic	1969	2014	16801	1969	2014	46	0.95	TRUE	0.002258659
804A	302	Treg	58	7.57	Tregde	Norway	Atlantic	1927	2008	29951	1927	2008	82	0.93	TRUE	0.058007433
805A	524	Vard	70.33	31.1	Vardo	Norway	Atlantic	1947	2014	24837	1979	2014	36	0.82	TRUE	0.031824899
302A	163	Balb	8.95	-79.57	Balboa	Panama	Pacific	1907	2018	40908	1907	2018	112	0.98	TRUE	-0.022646238
266A	169	Cris	9.35	-79.9	Cristobal	Panama	Atlantic	1907	2017	40543	1907	2017	111	0.92	TRUE	-0.123235053
010A	1164	Raba	-4.2	152.17	Rabaul	Papua New Guinea	Pacific	1966	1997	11688	1966	1997	32	0.84	TRUE	0.017052287
093B	1274	Call	-12.07	-77.17	Callao-B	Peru	Pacific	1970	2017	17532	1970	2017	48	0.96	TRUE	0.021692186
084A	1552	Lobo	-6.93	-80.72	Lobos de Afuera	Peru	Pacific	1982	2016	12784	1982	2016	35	0.87	TRUE	0.001468138
371A	522	Lega	13.13	123.75	Legaspi	Philippines	Pacific	1984	2017	12419	1984	2017	34	0.85	TRUE	0.007635241
370A	145	Mani	14.58	120.97	Manila	Philippines	Pacific	1984	2014	11323	1984	2014	31	0.91	TRUE	0.005689852
GESLA_0093	645	Wlad	54.797	18.419	Wladyslawowo	Poland	Atlantic	1962	2003	14431	1962	2003	42	0.96	TRUE	0.054378538
209A	52	Casc	38.68	-9.42	Cascais	Portugal	Atlantic	1959	2005	17167	1959	2005	47	0.88	TRUE	0.040570961
218B	1030	Func	32.63	-16.9	Funchal-B	Portugal	Atlantic	1976	2013	13880	1982	2013	32	0.82	TRUE	-0.012472683
011B	801	Chri	1.97	-157.47	Christmas-B	Rep. of Kiribati	Pacific	1974	2018	16436	1974	2018	45	0.91	TRUE	-0.007211401
013B	575	Kant	-2.8	-171.72	Kanton-B	Rep. of Kiribati	Pacific	1972	2018	17167	1972	2018	47	0.82	TRUE	-0.038585706
109A	1707	Gan	-0.68	73.15	Gan	Rep. of Maldives	Indian	1987	2017	11323	1987	2017	31	0.92	TRUE	0.029305726
055A	513	Kwaj	8.73	167.73	Kwajalein	Rep. of Marshall Islands	Pacific	1946	2018	26663	1946	2018	73	0.97	TRUE	-0.002443309
005A	1217	Maju	7.1	171.37	Majuro-A	Rep. of Marshall Islands	Pacific	1968	1999	11688	1968	1999	32	0.9	TRUE	-0.014115088
007B	1252	Mala	7.32	134.45	Malakal-B	Republic of Belau	Pacific	1969	2017	17897	1969	2017	49	0.95	TRUE	0.031691027
340A	1356	Kaoh	22.6	120.28	Kaohsiung	Republic of China	Pacific	1980	2016	13515	1980	2016	37	0.95	TRUE	-0.016434718
341A	545	Keel	25.15	121.75	Keelung	Republic of China	Pacific	1980	2016	13515	1980	2016	37	0.86	TRUE	0.058259663
699A	1746	Tanj	1.25	103.85	Tanjong Pagar	Singapore	Pacific	1988	2018	11323	1988	2018	31	0.95	TRUE	0.416491109
184A	820	Port	-33.95	25.62	Port Elizabeth	South Africa	Indian	1973	2016	16071	1978	2016	39	0.81	TRUE	0.035011653
221A	826	Simo	-34.18	18.43	Simon's Town	South Africa	Atlantic	1959	2016	21185	1959	1999	41	0.8	TRUE	0.033222115
GESLA_0169	593	Arre	28.972	-13.53	Arrecife	Spain	Atlantic	1949	2012	19054	1949	2012	64	0.82	TRUE	0.006938973
GESLA_0199	209	Cadi	36.533	-6.283	Cadiz	Spain	Atlantic	1961	2012	18111	1961	2012	52	0.95	TRUE	0.038811291
207A	498	Ceut	35.9	-5.32	Ceuta	Spain	Atlantic	1944	2013	25568	1944	2013	70	0.96	TRUE	0.015344272
830A	484	La C	43.37	-8.4	La Coruna	Spain	Atlantic	1943	2013	25933	1943	2013	71	0.97	TRUE	-0.007337725
GESLA_0266	496	Mala	36.717	-4.417	Malaga	Spain	Atlantic	1944	2012	20739	1944	2012	69	0.82	TRUE	0.014907937
GESLA_0113	485	Sant	43.461	-3.791	Santander	Spain	Atlantic	1943	2010	23901	1943	2010	68	0.97	TRUE	-0.01694679
GESLA_1085	485	sant	43.467	-3.8	Santander	Spain	Atlantic	1943	2010	23901	1943	2010	68	0.96	TRUE	-0.019060702
GESLA_0072	488	Tari	36	-5.6	Tarifa	Spain	Atlantic	1944	2012	23356	1944	2012	69	0.93	TRUE	-0.081984216
208A	483	Vigo	42.23	-8.73	Vigo	Spain	Atlantic	1943	1990	17532	1943	1990	48	0.99	TRUE	0.008049177
GESLA_0752	2103	Fors	60.409	18.211	Forsmark	Sweden	Atlantic	1975	2015	14393	1975	2015	41	1	TRUE	0.056485321
GESLA_0484	203	Furu	64.916	21.231	Furuogrund	Sweden	Atlantic	1960	2015	20001	1960	2015	56	1	TRUE	0.07102218
819A	1236	Gote	57.68	11.78	Goteborg-Torsh.	Sweden	Atlantic	1967	2014	17532	1967	2014	48	0.98	TRUE	0.066763178
GESLA_0352	2101	Kali	65.697	23.096	Kalix	Sweden	Atlantic	1974	2015	14661	1974	2015	42	0.99	TRUE	0.095630356
GESLA_0448	330	Klag	55.522	12.894	Klagshamn	Sweden	Atlantic	1960	2015	20089	1960	2015	56	1	TRUE	0.091368856
GESLA_0290	70	Kung	56.105	15.589	Kungsholmsfort	Sweden	Atlantic	1960	2015	20025	1960	2015	56	1	TRUE	0.059253061
GESLA_0691	2113	Kung	58.997	11.127	Kungsvik	Sweden	Atlantic	1973	2015	15128	1973	2015	43	1	TRUE	0.070273235
GESLA_0382	68	Land	58.742	17.865	Landsort	Sweden	Atlantic	1960	2006	17058	1960	2006	47	1	TRUE	0.019089186
GESLA_0160	2104	Marv	58.554	16.837	Marviken	Sweden	Atlantic	1964	2015	18307	1964	2015	52	1	TRUE	0.034779514
GESLA_0183	69	Olan	57.366	17.097	Olands Norra Udde	Sweden	Atlantic	1960	2015	18286	1960	2015	56	0.91	TRUE	0.032212885
GESLA_1010	2106	Oska	57.275	16.478	Oskarshamn	Sweden	Atlantic	1960	2015	19757	1960	2015	56	1	TRUE	0.038666836
GESLA_0467	88	Rata	63.986	20.895	Ratan	Sweden	Atlantic	1960	2015	20089	1960	2015	56	1	TRUE	0.063595607
GESLA_0301	2111	Ring	57.25	12.113	Ringhals	Sweden	Atlantic	1967	2015	16523	1967	2015	49	0.96	TRUE	0.046088493
GESLA_0362	2102	Skag	63.191	19.012	Skagsudde	Sweden	Atlantic	1982	2015	8799	1986	2015	30	0.82	TRUE	0.055854352
GESLA_1206	179	Smog	58.354	11.218	Smogen	Sweden	Atlantic	1960	2015	20089	1960	2015	56	1	TRUE	0.055296088
GESLA_0613	122	Spik	62.363	17.531	Spikarna	Sweden	Atlantic	1968	2015	16890	1968	2015	48	1	TRUE	0.049748296
GESLA_0335	2112	Sten	58.093	11.832	Stenungsund	Sweden	Atlantic	1962	2015	18011	1962	2015	54	0.94	TRUE	0.085957691
826A	78	Stoc	59.32	18.07	Stockholm	Sweden	Atlantic	1889	2014	46020	1889	2014	126	0.99	TRUE	0.039270887
GESLA_1146	2110	Vike	56.142	12.579	Viken	Sweden	Atlantic	1976	2015	14132	1976	2015	40	1	TRUE	0.070039726
GESLA_1048	2105	Visb	57.639	18.284	Visby	Sweden	Atlantic	1960	2015	19843	1960	2015	56	0.99	TRUE	0.029180052
151A	1600	Zanz	-6.15	39.18	Zanzibar	Tanzania	Indian	1984	2017	12419	1984	2017	34	0.95	TRUE	0.44676303
328A	174	Ko L	11.78	99.82	Ko Lak	Thailand	Pacific	1985	2017	12053	1985	2017	33	0.93	TRUE	0.028932366
148A	446	Ko T	7.82	98.42	Ko Taphao Noi	Thailand	Indian	1985	2017	12053	1985	2017	33	0.97	TRUE	0.000984159
GESLA_0828	361	Aber	57.143	-2.075	Aberdeen	United Kingdom	Atlantic	1930	2014	18864	1964	2014	51	0.81	TRUE	0.045597407
259B	368	Berm	32.37	-64.7	Bermuda-B	United Kingdom	Atlantic	1985	2018	12418	1985	2018	34	0.83	TRUE	0.024501484
GESLA_0064	1632	Crom	52.934	1.302	Cromer	United Kingdom	Atlantic	1973	2014	9589	1985	2014	30	0.81	TRUE	0.135005717
700A	913	Fara	-65.25	-64.27	Faraday	United Kingdom	Atlantic	1959	2018	21915	1977	2018	42	0.81	TRUE	0.028080015
GESLA_0446	939	Fish	52.014	-4.983	Fishguard	United Kingdom	Atlantic	1963	2014	17612	1963	2014	52	0.9	TRUE	0.112320991
289A	490	Gibr	36.13	-5.35	Gibraltar-A	United Kingdom	Atlantic	1961	2014	19723	1961	1992	32	0.82	TRUE	0.042454615
GESLA_1233	936	Heys	54.032	-2.92	Heysham	United Kingdom	Atlantic	1964	2014	17001	1964	2014	51	0.81	TRUE	-0.085101235
GESLA_0489	5	Holy	53.308	-4.631	Holyhead	United Kingdom	Atlantic	1964	2014	14284	1980	2014	35	0.8	TRUE	0.207999782
GESLA_0322	1214	Ilfr	51.211	-4.111	Ilfracombe	United Kingdom	Atlantic	1968	2014	12675	1984	2014	31	0.81	TRUE	0.071859729
GESLA_0205	286	Immi	53.631	-0.186	Immingham	United Kingdom	Atlantic	1953	2014	19681	1953	2014	62	0.82	TRUE	0.350744386
293A	830	Lerw	60.15	-1.13	Lerwick	United Kingdom	Atlantic	1959	2016	21185	1959	2016	58	0.93	TRUE	-0.004070537
GESLA_0593	754	Lowe	52.473	1.751	Lowestoft	United Kingdom	Atlantic	1964	2014	18309	1964	2014	51	0.97	TRUE	0.044949534
GESLA_1059	66	Milf	51.702	-5.014	Milford Haven	United Kingdom	Atlantic	1953	2014	17031	1975	2012	38	0.8	TRUE	0.032555684
GESLA_0665	755	Mill	55.75	-4.906	Millport	United Kingdom	Atlantic	1978	2014	11669	1978	2014	37	0.85	TRUE	0.094532424
GESLA_0560	1548	Newh	50.782	0.057	Newhaven	United Kingdom	Atlantic	1982	2014	9955	1982	2014	33	0.82	TRUE	0.166747353
294A	202	Newl	50.1	-5.53	"Newlyn, Cornwall"	United Kingdom	Atlantic	1915	2016	37256	1915	2016	102	0.97	TRUE	0.007071861
GESLA_0520	95	Nort	55.007	-1.44	North Shields	United Kingdom	Atlantic	1946	2014	17155	1962	2014	53	0.8	TRUE	0.065458811
GESLA_0173	1215	Port	54.843	-5.12	Portpatrick	United Kingdom	Atlantic	1968	2014	16258	1968	2014	47	0.87	TRUE	0.094001517
GESLA_1115	3	Shee	51.442	0.743	Sheerness	United Kingdom	Atlantic	1952	2014	16402	1965	2010	46	0.8	TRUE	0.657732424
295A	314	Stor	58.2	-6.38	Stornoway	United Kingdom	Atlantic	1976	2016	14976	1976	2016	41	0.8	TRUE	-0.011613927
GESLA_0289	1112	Ulla	57.895	-5.158	Ullapool	United Kingdom	Atlantic	1966	2014	14916	1974	2014	41	0.8	TRUE	0.062477334
GESLA_0038	1505	Whit	54.49	-0.614	Whitby	United Kingdom	Atlantic	1980	2014	12060	1980	2014	35	0.88	TRUE	0.078688358
GESLA_0658	1109	Wick	58.441	-3.086	Wick	United Kingdom	Atlantic	1965	2014	17124	1965	2014	50	0.9	TRUE	0.049990358
040A	487	Adak	51.85	-176.62	"Adak, AK"	USA	Pacific	1950	2018	25202	1950	2018	69	0.92	TRUE	0.042207485
GESLA_0609	1067	Anch	61.238	-149.89	"Anchorage, AK"	USA	Pacific	1979	2015	10896	1979	2015	37	0.83	TRUE	2.902010523
583B	566	Cord	60.55	-145.75	"Cordova-B, AK"	USA	Pacific	1964	2018	20089	1964	2018	55	0.88	TRUE	0.273303266
041B	390	Dutc	53.87	-166.53	"Dutch Harbor-B, AK"	USA	Pacific	1982	2018	13514	1982	2018	37	0.98	TRUE	-0.01508274
GESLA_0050	405	June	58.298	-134.412	"Juneau, AK"	USA	Atlantic	1979	2015	12905	1979	2015	37	1	TRUE	-0.031161514
571A	225	Ketc	55.33	-131.62	"Ketchikan, AK"	USA	Pacific	1918	2018	36890	1936	2018	83	0.8	TRUE	0.117130945
039A	567	Kodi	57.72	-152.5	"Kodiak Island, AK"	USA	Pacific	1975	2018	16071	1975	2018	44	0.88	TRUE	0.015898552
579A	1857	Prud	70.4	-148.52	"Prudhoe Bay, AK"	USA	Pacific	1989	2018	10957	1989	2018	30	0.94	TRUE	0.032334183
574A	1634	Sand	55.33	-160.5	"Sand Point, AK"	USA	Pacific	1973	2018	16801	1973	2018	46	0.97	TRUE	-0.13846695
561A	1070	Seld	59.43	-151.72	"Seldovia, AK"	USA	Pacific	1975	2018	16071	1975	2018	44	0.88	TRUE	-0.005700937
560C	266	Sewa	60.12	-149.42	"Seward-C, AK"	USA	Pacific	1967	2018	18993	1967	2018	52	0.9	TRUE	-0.007787452
559A	426	Sitk	57.05	-135.33	"Sitka, AK"	USA	Pacific	1938	2018	29585	1938	2018	81	0.99	TRUE	0.003214328
GESLA_1263	495	Skag	59.45	-135.327	"Skagway, AK"	USA	Pacific	1982	2015	11880	1982	2015	34	0.98	TRUE	0.031094272
562A	1353	Vald	61.12	-146.35	"Valdez, AK"	USA	Pacific	1973	2018	16801	1973	2018	46	0.89	TRUE	-0.159121949
570A	445	Yaku	59.53	-139.73	"Yakutat, AK"	USA	Pacific	1961	2018	21184	1961	2018	58	0.93	TRUE	0.008005748
763A	1156	Daup	30.25	-88.07	"Dauphin Island, AL"	USA	Atlantic	1981	2018	13879	1981	2018	38	0.87	TRUE	-0.008347476
GESLA_0825	437	Alam	37.772	-122.298	"Alameda, CA"	USA	Pacific	1976	2015	13001	1976	2015	40	0.91	TRUE	0.206577766
573A	2125	Aren	38.9	-123.7	"Arena Cove, CA"	USA	Pacific	1979	2018	14610	1984	2018	35	0.8	TRUE	0.010016033
556A	378	Cres	41.73	-124.18	"Crescent City, CA"	USA	Pacific	1933	2018	31411	1933	2018	86	0.91	TRUE	-0.010931862
576A	1639	Humb	40.77	-124.22	"Humboldt Bay, CA"	USA	Pacific	1977	2018	15340	1977	2018	42	0.97	TRUE	0.025868946
554A	256	La J	32.87	-117.25	"La Jolla, CA"	USA	Pacific	1924	2018	34699	1924	2018	95	0.93	TRUE	-0.00123532
567A	245	Los 	33.72	-118.27	"Los Angeles, CA"	USA	Pacific	1923	2018	35064	1923	2018	96	0.98	TRUE	0.015632688
555A	1352	Mont	36.6	-121.88	"Monterey, CA"	USA	Pacific	1973	2018	16801	1973	2018	46	0.98	TRUE	0.00291326
565A	508	Port	35.17	-120.75	"Port San Luis, CA"	USA	Pacific	1948	2018	25933	1948	2018	71	0.9	TRUE	0.010038011
569A	158	San 	32.7	-117.17	"San Diego, CA"	USA	Pacific	1906	2018	41273	1906	2018	113	0.98	TRUE	0.04051336
551A	10	San 	37.8	-122.45	"San Francisco, CA"	USA	Pacific	1897	2018	44559	1897	2018	122	0.99	TRUE	0.02013355
578A	377	Sant	34	-118.5	"Santa Monica, CA"	USA	Pacific	1973	2018	16801	1973	2018	46	0.93	TRUE	0.017204658
GESLA_0425	1068	Brid	41.173	-73.182	"Bridgeport, CT"	USA	Atlantic	1970	2015	16286	1970	2015	46	0.99	TRUE	0.437953988
744A	429	New 	41.35	-72.08	"New London, CT"	USA	Atlantic	1938	2018	29585	1938	2018	81	0.95	TRUE	-0.017278994
GESLA_0834	360	Wash	38.873	-77.022	"Washington, DC"	USA	Atlantic	1950	2015	23217	1950	2015	66	0.97	TRUE	0.443029993
747A	224	Lewe	38.77	-75.12	"Lewes, DE"	USA	Atlantic	1919	2018	36525	1931	2018	88	0.81	TRUE	0.170609613
GESLA_0170	786	Reed	39.558	-75.573	"Reedy Point, DE"	USA	Atlantic	1979	2015	12437	1979	2015	37	0.95	TRUE	0.407480724
760A	1193	Apal	29.72	-84.97	"Apalachicola, FL"	USA	Atlantic	1976	2018	15706	1976	2018	43	0.98	TRUE	0.025260536
240A	112	Fern	30.67	-81.47	"Fernandina Beach, FL"	USA	Atlantic	1897	2018	44559	1981	2018	38	0.81	TRUE	-0.046902896
242A	188	Key 	24.55	-81.8	"Key West, FL"	USA	Atlantic	1913	2018	38716	1913	2018	106	0.98	TRUE	0.032756825
753A	316	Mayp	30.38	-81.42	"Mayport, FL"	USA	Atlantic	1928	2000	26664	1928	2000	73	0.98	TRUE	-0.097274677
757A	1107	Napl	26.12	-81.8	"Naples, FL"	USA	Atlantic	1965	2018	19723	1965	2018	54	0.97	TRUE	-0.024422231
762A	246	Pens	30.4	-87.2	"Pensacola, FL"	USA	Atlantic	1923	2018	35064	1923	2018	96	0.97	TRUE	-0.008192335
759A	520	St. 	27.75	-82.62	"St. Petersburg, FL"	USA	Atlantic	1946	2018	26663	1946	2018	73	0.95	TRUE	-0.000384898
752A	395	Fort	32.03	-80.9	"Fort Pulaski, GA"	USA	Atlantic	1935	2018	30681	1935	2018	84	0.95	TRUE	-0.061156338
014A	1372	Fren	23.87	-166.28	"French Frigate-A, HI"	USA	Pacific	1974	2007	12418	1974	2007	34	0.91	TRUE	0.003980145
060A	300	Hilo	19.73	-155.07	"Hilo, HI"	USA	Pacific	1927	2018	33603	1927	2018	92	0.83	TRUE	0.001355298
057B	155	Hono	21.3	-157.87	"Honolulu, HI"	USA	Pacific	1905	2018	41638	1905	2018	114	0.99	TRUE	0.024280568
059A	521	Kahu	20.9	-156.47	"Kahului, HI"	USA	Pacific	1950	2018	25202	1950	2018	69	0.93	TRUE	0.031728875
552A	2128	Kawa	20.03	-155.83	"Kawaihae, HI"	USA	Pacific	1989	2018	10957	1989	2018	30	0.92	TRUE	0.038715264
061A	823	Moku	21.43	-157.8	"Mokuoloe, HI"	USA	Pacific	1957	2018	22645	1957	2018	62	0.83	TRUE	0.02721273
058A	756	Nawi	21.97	-159.35	"Nawiliwili, Hi"	USA	Pacific	1954	2018	23741	1954	2018	65	0.97	TRUE	0.013767796
765A	526	Gran	29.25	-89.95	"Grand Isle, LA"	USA	Atlantic	1980	2018	14245	1980	2018	39	0.98	TRUE	-0.005037495
741A	235	Bost	42.35	-71.05	"Boston, MA"	USA	Atlantic	1921	2018	35794	1921	2018	98	0.99	TRUE	0.067409201
743A	1111	Nant	41.28	-70.08	"Nantucket, MA"	USA	Atlantic	1965	2018	19723	1965	2018	54	0.96	TRUE	0.343165123
742A	367	Wood	41.52	-70.67	"Woods Hole, MA"	USA	Atlantic	1957	2018	22645	1957	2018	62	0.92	TRUE	-0.095027891
GESLA_1190	311	Anna	38.983	-76.482	"Annapolis, MD"	USA	Atlantic	1950	2015	22669	1950	2015	66	0.95	TRUE	0.178409398
GESLA_1240	148	Balt	39.267	-76.578	"Baltimore, MD"	USA	Atlantic	1950	2015	23428	1950	2015	66	0.98	TRUE	0.220488178
GESLA_0035	481	Camb	38.573	-76.068	"Cambridge, MD"	USA	Atlantic	1979	2015	12897	1979	2015	37	0.99	TRUE	0.244199134
GESLA_0740	412	Solo	38.317	-76.452	"Solomon's Island, MD"	USA	Atlantic	1979	2015	11540	1979	2015	37	0.89	TRUE	0.173223391
GESLA_1204	525	Bar-	44.392	-68.205	"Bar Harbor, ME"	USA	Atlantic	1950	2015	18397	1966	2015	50	0.81	TRUE	0.025741385
740A	332	East	44.9	-66.98	"Eastport, ME"	USA	Atlantic	1929	2018	32872	1929	2018	90	0.93	TRUE	0.369631546
252A	183	Port	43.65	-70.23	"Portland, ME"	USA	Atlantic	1910	2018	39812	1910	2018	109	0.97	TRUE	0.033006178
260A	1636	Duck	36.18	-75.73	"Duck Pier, NC"	USA	Atlantic	1978	2018	14975	1978	2018	41	0.98	TRUE	0.022566592
750A	396	Wilm	34.22	-77.95	"Wilmington, NC"	USA	Atlantic	1935	2018	30681	1935	2018	84	0.97	TRUE	-0.095590942
264A	180	Atla	39.35	-74.42	"Atlantic City, NJ"	USA	Atlantic	1911	2018	39447	1911	2018	108	0.94	TRUE	0.039831793
746A	1153	Cape	38.97	-74.95	"Cape May, NJ"	USA	Atlantic	1965	2018	19723	1965	2018	54	0.89	TRUE	0.251969821
GESLA_1005	366	Sand	40.467	-74.009	"Sandy Hook, NJ"	USA	Atlantic	1950	2015	23208	1950	2015	66	0.97	TRUE	0.044886334
279A	519	Mont	41.03	-71.95	"Montauk, NY"	USA	Atlantic	1947	2018	26298	1947	2018	72	0.91	TRUE	-0.131349959
745A	12	New 	40.7	-74	"New York, NY"	USA	Atlantic	1920	2018	36160	1920	2018	99	0.87	TRUE	-0.040884972
GESLA_1194	362	Will	40.793	-73.782	"Willets Point, NY"	USA	Atlantic	1950	2000	17086	1950	2000	51	0.92	TRUE	0.417072078
572A	265	Asto	46.2	-123.77	"Astoria, OR"	USA	Pacific	1925	2018	34333	1925	2018	94	0.99	TRUE	-0.895538717
575A	1269	Char	43.33	-124.32	"Charleston, OR"	USA	Pacific	1970	2018	17897	1970	2018	49	0.91	TRUE	0.011211663
557A	1640	Port	42.73	-124.48	"Port Orford, OR"	USA	Pacific	1978	2018	14975	1978	2018	41	0.86	TRUE	-0.007704942
592A	1196	Sout	44.62	-124.03	"South Beach, OR"	USA	Pacific	1967	2018	18993	1967	2018	52	0.99	TRUE	0.008269369
253A	351	Newp	41.5	-71.32	"Newport, RI"	USA	Atlantic	1930	2018	32507	1930	2018	89	0.95	TRUE	0.055062546
GESLA_1021	430	Prov	41.807	-71.401	"Providence, RI"	USA	Atlantic	1979	2015	13065	1979	2015	37	1	TRUE	0.190076577
261B	234	Char	32.77	-79.92	"Charleston, SC"	USA	Atlantic	1921	2018	35794	1921	2018	98	0.98	TRUE	-0.075715496
GESLA_0768	862	Spri	33.655	-78.918	"Springmaid Pier, SC"	USA	Atlantic	1976	2015	12760	1976	2015	40	0.91	TRUE	-0.055600174
770A	1903	Corp	27.57	-97.22	"Corpus Cristi, TX"	USA	Atlantic	1983	2018	13149	1983	2018	36	0.93	TRUE	0.023739918
GESLA_0452	725	Free	28.948	-95.308	"Freeport, TX"	USA	Atlantic	1954	2008	19250	1954	2008	55	0.98	TRUE	-0.010660862
767A	161	Galv	29.28	-94.78	"Galveston P.Pier, TX"	USA	Atlantic	1957	2011	20088	1957	2011	55	0.94	TRUE	0.043476447
775A	161	Galv	29.3	-94.78	"Galveston Pier 21, TX"	USA	Atlantic	1904	2018	42004	1904	2018	115	0.97	TRUE	-0.043053037
772A	497	Port	26.05	-97.2	"Port Isabel, TX"	USA	Atlantic	1944	2018	27394	1944	2018	75	0.93	TRUE	-0.039543485
769A	538	Rock	28.02	-97.03	"Rockport, TX"	USA	Atlantic	1937	2018	29950	1944	2018	75	0.81	TRUE	-0.075604151
766A	920	Sabi	29.72	-93.87	"Sabine Pass N, TX"	USA	Atlantic	1985	2018	12418	1985	2018	34	0.98	TRUE	-0.042574322
749A	1635	Ches	36.97	-76.1	"Chesapeake BBT, VA"	USA	Atlantic	1975	2016	15341	1975	2016	42	0.99	TRUE	0.082565853
GESLA_0145	299	Sewe	36.947	-76.33	"Sewells Point, VA"	USA	Atlantic	1950	2015	23707	1950	2015	66	0.99	TRUE	0.155420085
558A	385	Neah	48.37	-124.62	"Neah Bay, WA"	USA	Pacific	1934	2018	31046	1934	2018	85	0.97	TRUE	-0.009803599
GESLA_0428	127	Seat	47.603	-122.339	"Seattle, WA"	USA	Pacific	1950	2015	23777	1950	2015	66	1	TRUE	-0.015399333
564A	1354	Will	46.7	-123.95	"Willapa Bay, WA"	USA	Pacific	1972	2018	17167	1972	2018	47	0.94	TRUE	-0.06794336
246A	759	Magu	17.97	-67.03	"Magueyes Island, PR"	USA Trust	Atlantic	1954	2018	23741	1954	2018	65	0.88	TRUE	-0.005889378
245A	1001	San 	18.45	-66.12	"San Juan, PR"	USA Trust	Atlantic	1977	2018	15340	1977	2018	42	0.94	TRUE	-0.022098974
255A	1393	Char	18.33	-64.92	"Charlotte Amalie, VI"	USA Trust	Atlantic	1978	2018	14975	1978	2018	41	0.88	TRUE	0.020230908
254A	1447	Lime	17.68	-64.75	"Limetree Bay, VI"	USA Trust	Atlantic	1982	2018	13514	1982	2018	37	0.92	TRUE	0.006169559
053A	540	Apra	13.43	144.65	"Apra Harbor, Guam"	USA Trust	Pacific	1948	2018	25933	1948	2018	71	0.93	TRUE	0.018894193
052A	598	John	16.73	-169.52	Johnston	USA Trust	Pacific	1947	2018	26298	1947	2018	72	0.9	TRUE	0.009921041
050A	523	Midw	28.22	-177.37	Midway	USA Trust	Pacific	1947	2018	26298	1947	2018	72	0.94	TRUE	0.034236811
056A	539	Pago	-14.28	-170.68	Pago Pago	USA Trust	Pacific	1948	2018	25933	1948	2018	71	0.95	TRUE	-0.003335404
028B	1474	Saip	15.22	145.73	"Saipan-B, N. Mariana Islands"	USA Trust	Pacific	1978	2018	14975	1978	2018	41	0.87	TRUE	0.039299306
051A	595	Wake	19.28	166.62	Wake	USA Trust	Pacific	1950	2018	25202	1950	2018	69	0.93	TRUE	-0.021076478